[{"OBJECT_NAME":"COSMOS 2566","OBJECT_ID":"2022-163C","EPOCH":"2026-03-09T21:48:06.708672","MEAN_MOTION":13.97695206,"ECCENTRICITY":0.0007804,"INCLINATION":67.1457,"RA_OF_ASC_NODE":343.8663,"ARG_OF_PERICENTER":202.0486,"MEAN_ANOMALY":158.0264,"EPHEMERIS_TYPE":0,"CLASSIFICATION_TYPE":"U","NORAD_CAT_ID":54383,"ELEMENT_SET_NO":999,"REV_AT_EPOCH":16669,"BSTAR":7.7007e-5,"MEAN_MOTION_DOT":3.3e-7,"MEAN_MOTION_DDOT":0},{"OBJECT_NAME":"CZ-6A DEB","OBJECT_ID":"2022-151ABX","EPOCH":"2026-03-09T21:54:40.555296","MEAN_MOTION":14.00098543,"ECCENTRICITY":0.0140593,"INCLINATION":98.9103,"RA_OF_ASC_NODE":44.3577,"ARG_OF_PERICENTER":330.1117,"MEAN_ANOMALY":29.2073,"EPHEMERIS_TYPE":0,"CLASSIFICATION_TYPE":"U","NORAD_CAT_ID":56255,"ELEMENT_SET_NO":999,"REV_AT_EPOCH":15011,"BSTAR":0.0037330817,"MEAN_MOTION_DOT":5.952e-5,"MEAN_MOTION_DDOT":0}]
